{"type": "FeatureCollection", "features": [ {"type": "Feature", "properties": {"norad_id": 51444, "name": "CSG-2", "group": "resource", "lat": 50.87650020893628, "lon": -1.0285025317843448, "alt_km": 617.1071664464898, "timestamp": "2025-12-13T20:38:50.652721+00:00", "meta": {"OBJECT_NAME": "CSG-2", "OBJECT_ID": "2022-008A", "EPOCH": "2025-12-13T07:06:30.165408", "MEAN_MOTION": 14.82165636, "ECCENTRICITY": 0.0001529, "INCLINATION": 97.8809, "RA_OF_ASC_NODE": 168.6108, "ARG_OF_PERICENTER": 82.2621, "MEAN_ANOMALY": 277.8766, "EPHEMERIS_TYPE": 0, "CLASSIFICATION_TYPE": "U", "NORAD_CAT_ID": 51444, "ELEMENT_SET_NO": 999, "REV_AT_EPOCH": 20905, "BSTAR": 0.00011920068, "MEAN_MOTION_DOT": 8.97e-06, "MEAN_MOTION_DDOT": 0}, "tle": {"line1": "1 51444U 22008A   25347.29618247  .00000897  00000+0  11920-3 0  9999", "line2": "2 51444  97.8809 168.6108 0001529  82.2621 277.8766 14.82165636209050"}}, "geometry": {"type": "Point", "coordinates": [-1.0285025317843448, 50.87650020893628]}}, {"type": "Feature", "properties": {"norad_id": 52912, "name": "GAOFEN-12 03", "group": "resource", "lat": 34.13833246348918, "lon": -130.1825384400931, "alt_km": 627.0042535885059, "timestamp": "2025-12-13T20:38:50.652731+00:00", "meta": {"OBJECT_NAME": "GAOFEN-12 03", "OBJECT_ID": "2022-069A", "EPOCH": "2025-12-13T05:53:04.922304", "MEAN_MOTION": 14.79612685, "ECCENTRICITY": 0.00021586, "INCLINATION": 97.8477, "RA_OF_ASC_NODE": 234.5827, "ARG_OF_PERICENTER": 61.7596, "MEAN_ANOMALY": 298.3833, "EPHEMERIS_TYPE": 0, "CLASSIFICATION_TYPE": "U", "NORAD_CAT_ID": 52912, "ELEMENT_SET_NO": 999, "REV_AT_EPOCH": 18711, "BSTAR": 0.00033001591, "MEAN_MOTION_DOT": 2.423e-05, "MEAN_MOTION_DDOT": 0}, "tle": {"line1": "1 52912U 22069A   25347.24519586  .00002423  00000+0  33002-3 0  9990", "line2": "2 52912  97.8477 234.5827 0002158  61.7596 298.3833 14.79612685187117"}}, "geometry": {"type": "Point", "coordinates": [-130.1825384400931, 34.13833246348918]}}, {"type": "Feature", "properties": {"norad_id": 54754, "name": "SWOT", "group": "resource", "lat": 48.97155470133472, "lon": -59.89114738870832, "alt_km": 888.4604969612737, "timestamp": "2025-12-13T20:38:50.652741+00:00", "meta": {"OBJECT_NAME": "SWOT", "OBJECT_ID": "2022-173A", "EPOCH": "2025-12-13T06:41:14.921952", "MEAN_MOTION": 14.00165723, "ECCENTRICITY": 3.404e-05, "INCLINATION": 77.6108, "RA_OF_ASC_NODE": 286.2622, "ARG_OF_PERICENTER": 106.5655, "MEAN_ANOMALY": 253.5534, "EPHEMERIS_TYPE": 0, "CLASSIFICATION_TYPE": "U", "NORAD_CAT_ID": 54754, "ELEMENT_SET_NO": 999, "REV_AT_EPOCH": 15313, "BSTAR": 6.4602637e-05, "MEAN_MOTION_DOT": 9.3e-07, "MEAN_MOTION_DDOT": 0}, "tle": {"line1": "1 54754U 22173A   25347.27864493  .00000093  00000+0  64603-4 0  9998", "line2": "2 54754  77.6108 286.2622 0000340 106.5655 253.5534 14.00165723153138"}}, "geometry": {"type": "Point", "coordinates": [-59.89114738870832, 48.97155470133472]}}, {"type": "Feature", "properties": {"norad_id": 57654, "name": "GAOFEN-12 04", "group": "resource", "lat": -24.456236720157293, "lon": 79.97438013388305, "alt_km": 636.4623105107439, "timestamp": "2025-12-13T20:38:50.652752+00:00", "meta": {"OBJECT_NAME": "GAOFEN-12 04", "OBJECT_ID": "2023-123A", "EPOCH": "2025-12-13T06:44:32.195616", "MEAN_MOTION": 14.79703631, "ECCENTRICITY": 0.00013589, "INCLINATION": 97.9117, "RA_OF_ASC_NODE": 263.0301, "ARG_OF_PERICENTER": 75.0348, "MEAN_ANOMALY": 285.1014, "EPHEMERIS_TYPE": 0, "CLASSIFICATION_TYPE": "U", "NORAD_CAT_ID": 57654, "ELEMENT_SET_NO": 999, "REV_AT_EPOCH": 12513, "BSTAR": 0.00031279123, "MEAN_MOTION_DOT": 2.298e-05, "MEAN_MOTION_DDOT": 0}, "tle": {"line1": "1 57654U 23123A   25347.28092819  .00002298  00000+0  31279-3 0  9993", "line2": "2 57654  97.9117 263.0301 0001358  75.0348 285.1014 14.79703631125136"}}, "geometry": {"type": "Point", "coordinates": [79.97438013388305, -24.456236720157293]}}, {"type": "Feature", "properties": {"norad_id": 59065, "name": "PARS 1", "group": "resource", "lat": 51.151857071774494, "lon": 148.18491659593454, "alt_km": 434.1055001501318, "timestamp": "2025-12-13T20:38:50.652762+00:00", "meta": {"OBJECT_NAME": "PARS 1", "OBJECT_ID": "2024-039Q", "EPOCH": "2025-12-13T07:37:36.249888", "MEAN_MOTION": 15.40995297, "ECCENTRICITY": 0.00125275, "INCLINATION": 97.4634, "RA_OF_ASC_NODE": 318.2631, "ARG_OF_PERICENTER": 70.6152, "MEAN_ANOMALY": 289.6447, "EPHEMERIS_TYPE": 0, "CLASSIFICATION_TYPE": "U", "NORAD_CAT_ID": 59065, "ELEMENT_SET_NO": 999, "REV_AT_EPOCH": 9997, "BSTAR": 0.00042999947, "MEAN_MOTION_DOT": 0.00017707, "MEAN_MOTION_DDOT": 0}, "tle": {"line1": "1 59065U 24039Q   25347.31778067  .00017707  00000+0  43000-3 0  9994", "line2": "2 59065  97.4634 318.2631 0012527  70.6152 289.6447 15.40995297 99977"}}, "geometry": {"type": "Point", "coordinates": [148.18491659593454, 51.151857071774494]}}, {"type": "Feature", "properties": {"norad_id": 59371, "name": "RESURS-P 4", "group": "resource", "lat": -53.69031222750175, "lon": 104.18526310180596, "alt_km": 477.6222611684243, "timestamp": "2025-12-13T20:38:50.652772+00:00", "meta": {"OBJECT_NAME": "RESURS-P 4", "OBJECT_ID": "2024-061A", "EPOCH": "2025-12-13T07:05:17.109888", "MEAN_MOTION": 15.32093608, "ECCENTRICITY": 0.00014895, "INCLINATION": 97.254, "RA_OF_ASC_NODE": 293.614, "ARG_OF_PERICENTER": 53.1385, "MEAN_ANOMALY": 306.9994, "EPHEMERIS_TYPE": 0, "CLASSIFICATION_TYPE": "U", "NORAD_CAT_ID": 59371, "ELEMENT_SET_NO": 999, "REV_AT_EPOCH": 9529, "BSTAR": 0.00020340656, "MEAN_MOTION_DOT": 6.227e-05, "MEAN_MOTION_DDOT": 0}, "tle": {"line1": "1 59371U 24061A   25347.29533692  .00006227  00000+0  20341-3 0  9997", "line2": "2 59371  97.2540 293.6140 0001489  53.1385 306.9994 15.32093608 95298"}}, "geometry": {"type": "Point", "coordinates": [104.18526310180596, -53.69031222750175]}}, {"type": "Feature", "properties": {"norad_id": 59625, "name": "LEGION 1", "group": "resource", "lat": 36.044747038711755, "lon": 56.971519402253925, "alt_km": 513.6512873933198, "timestamp": "2025-12-13T20:38:50.652782+00:00", "meta": {"OBJECT_NAME": "LEGION 1", "OBJECT_ID": "2024-081A", "EPOCH": "2025-12-13T06:14:06.087552", "MEAN_MOTION": 15.16490945, "ECCENTRICITY": 0.00038966, "INCLINATION": 97.5212, "RA_OF_ASC_NODE": 61.8936, "ARG_OF_PERICENTER": 316.1052, "MEAN_ANOMALY": 43.987, "EPHEMERIS_TYPE": 0, "CLASSIFICATION_TYPE": "U", "NORAD_CAT_ID": 59625, "ELEMENT_SET_NO": 999, "REV_AT_EPOCH": 8935, "BSTAR": 0.00040825, "MEAN_MOTION_DOT": 7.888e-05, "MEAN_MOTION_DDOT": 0}, "tle": {"line1": "1 59625U 24081A   25347.25979268  .00007888  00000+0  40825-3 0  9993", "line2": "2 59625  97.5212  61.8936 0003896 316.1052  43.9870 15.16490945 89352"}}, "geometry": {"type": "Point", "coordinates": [56.971519402253925, 36.044747038711755]}}, {"type": "Feature", "properties": {"norad_id": 59626, "name": "LEGION 2", "group": "resource", "lat": -35.94080120546515, "lon": -122.92040443534576, "alt_km": 521.5992281019799, "timestamp": "2025-12-13T20:38:50.652792+00:00", "meta": {"OBJECT_NAME": "LEGION 2", "OBJECT_ID": "2024-081B", "EPOCH": "2025-12-13T07:01:39.643680", "MEAN_MOTION": 15.1650385, "ECCENTRICITY": 0.00057079, "INCLINATION": 97.5216, "RA_OF_ASC_NODE": 62.0136, "ARG_OF_PERICENTER": 291.0165, "MEAN_ANOMALY": 69.0457, "EPHEMERIS_TYPE": 0, "CLASSIFICATION_TYPE": "U", "NORAD_CAT_ID": 59626, "ELEMENT_SET_NO": 999, "REV_AT_EPOCH": 8936, "BSTAR": 0.00045805508, "MEAN_MOTION_DOT": 8.864e-05, "MEAN_MOTION_DDOT": 0}, "tle": {"line1": "1 59626U 24081B   25347.29281995  .00008864  00000+0  45806-3 0  9990", "line2": "2 59626  97.5216  62.0136 0005707 291.0165  69.0457 15.16503850 89362"}}, "geometry": {"type": "Point", "coordinates": [-122.92040443534576, -35.94080120546515]}}, {"type": "Feature", "properties": {"norad_id": 60182, "name": "ALOS-4 (DAICHI-4)", "group": "resource", "lat": 80.33397436396406, "lon": 27.84605618454603, "alt_km": 622.5236557532617, "timestamp": "2025-12-13T20:38:50.652803+00:00", "meta": {"OBJECT_NAME": "ALOS-4 (DAICHI-4)", "OBJECT_ID": "2024-123A", "EPOCH": "2025-12-10T20:50:51.532800", "MEAN_MOTION": 14.79478132, "ECCENTRICITY": 0.0001419, "INCLINATION": 97.9225, "RA_OF_ASC_NODE": 79.7424, "ARG_OF_PERICENTER": 101.2045, "MEAN_ANOMALY": 258.9326, "EPHEMERIS_TYPE": 0, "CLASSIFICATION_TYPE": "U", "NORAD_CAT_ID": 60182, "ELEMENT_SET_NO": 999, "REV_AT_EPOCH": 7803, "BSTAR": 0.00039567, "MEAN_MOTION_DOT": 2.905e-05, "MEAN_MOTION_DDOT": 0}, "tle": {"line1": "1 60182U 24123A   25344.86865200  .00002905  00000+0  39567-3 0  9990", "line2": "2 60182  97.9225  79.7424 0001419 101.2045 258.9326 14.79478132 78033"}}, "geometry": {"type": "Point", "coordinates": [27.84605618454603, 80.33397436396406]}}, {"type": "Feature", "properties": {"norad_id": 60452, "name": "LEGION 3", "group": "resource", "lat": -44.944595023651836, "lon": -142.95981761163455, "alt_km": 518.2905352871903, "timestamp": "2025-12-13T20:38:50.652813+00:00", "meta": {"OBJECT_NAME": "LEGION 3", "OBJECT_ID": "2024-146A", "EPOCH": "2025-12-13T06:47:57.318720", "MEAN_MOTION": 15.15771968, "ECCENTRICITY": 0.0014941, "INCLINATION": 45.0016, "RA_OF_ASC_NODE": 307.2189, "ARG_OF_PERICENTER": 201.5893, "MEAN_ANOMALY": 158.4357, "EPHEMERIS_TYPE": 0, "CLASSIFICATION_TYPE": "U", "NORAD_CAT_ID": 60452, "ELEMENT_SET_NO": 999, "REV_AT_EPOCH": 7381, "BSTAR": 0.00045578951, "MEAN_MOTION_DOT": 8.613e-05, "MEAN_MOTION_DDOT": 0}, "tle": {"line1": "1 60452U 24146A   25347.28330230  .00008613  00000+0  45579-3 0  9996", "line2": "2 60452  45.0016 307.2189 0014941 201.5893 158.4357 15.15771968 73814"}}, "geometry": {"type": "Point", "coordinates": [-142.95981761163455, -44.944595023651836]}}]}